[{"OBJECT_NAME":"STARLINK-31449","OBJECT_ID":"2024-031B","EPOCH":"2026-03-09T20:36:46.108800","MEAN_MOTION":15.30190507,"ECCENTRICITY":0.00012334,"INCLINATION":53.1608,"RA_OF_ASC_NODE":295.5906,"ARG_OF_PERICENTER":92.1734,"MEAN_ANOMALY":267.9408,"EPHEMERIS_TYPE":0,"CLASSIFICATION_TYPE":"U","NORAD_CAT_ID":58966,"ELEMENT_SET_NO":999,"REV_AT_EPOCH":11656,"BSTAR":3.3230852e-5,"MEAN_MOTION_DOT":6.25e-6,"MEAN_MOTION_DDOT":0},{"OBJECT_NAME":"VSP RF C1","OBJECT_ID":"2024-043AQ","EPOCH":"2026-03-09T21:56:05.358624","MEAN_MOTION":15.29409663,"ECCENTRICITY":0.00093965,"INCLINATION":97.5441,"RA_OF_ASC_NODE":205.1792,"ARG_OF_PERICENTER":219.6172,"MEAN_ANOMALY":140.4382,"EPHEMERIS_TYPE":0,"CLASSIFICATION_TYPE":"U","NORAD_CAT_ID":59136,"ELEMENT_SET_NO":999,"REV_AT_EPOCH":11190,"BSTAR":0.00026222052,"MEAN_MOTION_DOT":7.409e-5,"MEAN_MOTION_DDOT":0}]
